[{"OBJECT_NAME":"STARLINK-36280","OBJECT_ID":"2025-304V","EPOCH":"2026-03-09T16:12:01.802304","MEAN_MOTION":14.98313787,"ECCENTRICITY":0.0003112,"INCLINATION":70.0027,"RA_OF_ASC_NODE":174.4498,"ARG_OF_PERICENTER":275.5816,"MEAN_ANOMALY":84.4988,"EPHEMERIS_TYPE":0,"CLASSIFICATION_TYPE":"U","NORAD_CAT_ID":67211,"ELEMENT_SET_NO":999,"REV_AT_EPOCH":1388,"BSTAR":-0.0005522368,"MEAN_MOTION_DOT":-6.673e-5,"MEAN_MOTION_DDOT":0},{"OBJECT_NAME":"CZ-6A DEB","OBJECT_ID":"2024-140GN","EPOCH":"2026-03-09T13:15:37.384128","MEAN_MOTION":14.8336719,"ECCENTRICITY":0.01353257,"INCLINATION":88.6725,"RA_OF_ASC_NODE":255.8629,"ARG_OF_PERICENTER":152.9061,"MEAN_ANOMALY":207.9314,"EPHEMERIS_TYPE":0,"CLASSIFICATION_TYPE":"U","NORAD_CAT_ID":60811,"ELEMENT_SET_NO":999,"REV_AT_EPOCH":8463,"BSTAR":0.00091817467,"MEAN_MOTION_DOT":8.879e-5,"MEAN_MOTION_DDOT":0}]
